NORAD_CAT_ID,OBJECT_NAME,OBJECT_TYPE,EPOCH,MEAN_MOTION,ECCENTRICITY,INCLINATION,RA_OF_ASC_NODE,ARG_OF_PERICENTER,MEAN_ANOMALY,BSTAR,MEAN_MOTION_DOT,MEAN_MOTION_DDOT,TLE_LINE0,TLE_LINE1,TLE_LINE2,SEMIMAJOR_AXIS,PERIOD,APOGEE,PERIGEE,DECAYED
52345.0,STARLINK-3852,PAYLOAD,2022-06-04 11:17:07,15.73202841,0.0001571999999999,53.2126,260.1721,61.611,298.5069,-2.6657e-05,-4.36e-05,0.0,0 STARLINK-3852,1 52345U 22045Q   22155.47023094 -.00004360  00000-0 -26657-4 0  9991,2 52345  53.2126 260.1721 0001572  61.6110 298.5069 15.73202841  8144,6727.887,91.533,350.81,348.694,0.0
52345.0,STARLINK-3852,PAYLOAD,2022-06-05 22:00:00,15.73281077,0.0002304,53.2132,253.0153,25.2997,251.5675,-0.00069358,-0.00097195,0.0,0 STARLINK-3852,1 52345U 22045Q   22156.91667824 -.00097195  00000-0 -69358-3 0  9998,2 52345  53.2132 253.0153 0002304  25.2997 251.5675 15.73281077  8368,6727.6640000000025,91.528,351.079,347.97900000000016,0.0
52345.0,STARLINK-3852,PAYLOAD,2022-06-06 14:00:01,15.73207566,0.0002387,53.2142,249.7171,19.9452,74.8495,-0.00035252,-0.00049826,0.0,0 STARLINK-3852,1 52345U 22045Q   22157.58334491 -.00049826  00000-0 -35252-3 0  9997,2 52345  53.2142 249.7171 0002387  19.9452  74.8495 15.73207566  8477,6727.874,91.533,351.345,348.1330000000001,0.0
52345.0,STARLINK-3852,PAYLOAD,2022-06-06 22:00:00,15.73216625,0.0002314,53.2137,248.0664,18.5181,165.2107,1.7944e-05,1.899e-05,0.0,0 STARLINK-3852,1 52345U 22045Q   22157.91667824  .00001899  00000-0  17944-4 0  9998,2 52345  53.2137 248.0664 0002314  18.5181 165.2107 15.73216625  8521,6727.848000000001,91.532,351.27,348.156,0.0
52345.0,STARLINK-3852,PAYLOAD,2022-06-07 14:00:01,15.7318495,0.0002543,53.2143,244.7682,23.6949,337.9224,8.209700000000001e-05,0.00010909,0.0,0 STARLINK-3852,1 52345U 22045Q   22158.58334491  .00010909  00000-0  82097-4 0  9996,2 52345  53.2143 244.7682 0002543  23.6949 337.9224 15.73184950  8639,6727.938,91.534,351.514,348.092,0.0
52345.0,STARLINK-3852,PAYLOAD,2022-06-07 22:00:00,15.73209762,0.0002454,53.2142,243.1173,19.7006,70.8575,-0.00020026,-0.00028647,0.0,0 STARLINK-3852,1 52345U 22045Q   22158.91667824 -.00028647  00000-0 -20026-3 0  9995,2 52345  53.2142 243.1173 0002454  19.7006  70.8575 15.73209762  1305,6727.8669999999975,91.533,351.3830000000001,348.081,0.0
52345.0,STARLINK-3852,PAYLOAD,2022-06-08 06:00:02,15.73242406,0.0002286,53.2161,241.4651,17.5833,161.8113,-0.0019222,-0.00262668,0.0,0 STARLINK-3852,1 52345U 22045Q   22159.25002315 -.00262668  00000-0 -19222-2 0  9999,2 52345  53.2161 241.4651 0002286  17.5833 161.8113 15.73242406  8730,6727.774,91.531,351.177,348.101,0.0
52345.0,STARLINK-3852,PAYLOAD,2022-06-08 14:00:01,15.73255764,0.0002603,53.2159,239.8176,13.9893,254.1981,-0.0020062,-0.00273938,0.0,0 STARLINK-3852,1 52345U 22045Q   22159.58334491 -.00273938  00000-0 -20062-2 0  9994,2 52345  53.2159 239.8176 0002603  13.9893 254.1981 15.73255764  8784,6727.736,91.53,351.352,347.85,0.0
52345.0,STARLINK-3852,PAYLOAD,2022-06-08 22:00:01,15.73142464,0.0002518,53.2167,238.1638,13.3339,343.7978,-0.0051324,-0.00665242,0.0,0 STARLINK-3852,1 52345U 22045Q   22159.91668981 -.00665242  00000-0 -51324-2 0  9993,2 52345  53.2167 238.1638 0002518  13.3339 343.7978 15.73142464  8831,6728.059,91.537,351.61800000000005,348.23,0.0
52345.0,STARLINK-3852,PAYLOAD,2022-06-09 14:00:01,15.72159622,0.0002626,53.2174,234.8629,17.9745,155.6504,-0.0058004,-0.00716398,0.0,0 STARLINK-3852,1 52345U 22045Q   22160.58334491 -.00716398  00000-0 -58004-2 0  9995,2 52345  53.2174 234.8629 0002626  17.9745 155.6504 15.72159622  1306,6730.863,91.594,354.495,350.96,0.0
52345.0,STARLINK-3852,PAYLOAD,2022-06-09 22:00:00,15.71651977,0.0002309,53.2175,233.2123,13.4203,247.5744,-0.0059675,-0.00720782,0.0,0 STARLINK-3852,1 52345U 22045Q   22160.91667824 -.00720782  00000-0 -59675-2 0  9998,2 52345  53.2175 233.2123 0002309  13.4203 247.5744 15.71651977  1303,6732.312,91.623,355.732,352.62300000000016,0.0
52345.0,STARLINK-3852,PAYLOAD,2022-06-10 00:00:00,15.71521829,0.0002348,53.2175,232.7998,12.6175,0.1249,-0.0059588,-0.00716169,0.0,0 STARLINK-3852,1 52345U 22045Q   22161.00001157 -.00716169  00000-0 -59588-2 0  9997,2 52345  53.2175 232.7998 0002348  12.6175   0.1249 15.71521829  9010,6732.684,91.631,356.13,352.968,0.0
52345.0,STARLINK-3852,PAYLOAD,2022-06-10 14:00:01,15.70629621,0.0002804,53.2175,229.9192,12.1694,61.7255,-0.006187,-0.00716173,0.0,0 STARLINK-3852,1 52345U 22045Q   22161.58334491 -.00716173  00000-0 -61870-2 0  9992,2 52345  53.2175 229.9192 0002804  12.1694  61.7255 15.70629621  1304,6735.233,91.683,358.987,355.21,0.0
52345.0,STARLINK-3852,PAYLOAD,2022-06-10 22:00:00,15.70125655,0.0004409,53.2174,228.2721,303.4692,215.956,-0.0064231,-0.00727457,0.0,0 STARLINK-3852,1 52345U 22045Q   22161.91667824 -.00727457  00000-0 -64231-2 0  9999,2 52345  53.2174 228.2721 0004409 303.4692 215.9560 15.70125655  9151,6736.675,91.712,361.51,355.569,0.0
52345.0,STARLINK-3852,PAYLOAD,2022-06-11 22:00:00,15.68594575,0.0002074,53.2176,223.3437,270.4052,141.9365,-0.0068096999999999,-0.00723198,0.0,0 STARLINK-3852,1 52345U 22045Q   22162.91667824 -.00723198  00000-0 -68097-2 0  9992,2 52345  53.2176 223.3437 0002074 270.4052 141.9365 15.68594575  1300,6741.058000000001,91.802,364.321,361.524,0.0
52345.0,STARLINK-3852,PAYLOAD,2022-06-12 06:00:02,15.68084744,7.59e-05,53.2177,221.7033,35.4897,99.9976,-0.0069622,-0.00723641,0.0,0 STARLINK-3852,1 52345U 22045Q   22163.25002315 -.00723641  00000-0 -69622-2 0  9996,2 52345  53.2177 221.7033 0000759  35.4897  99.9976 15.68084744  9365,6742.519,91.832,364.895,363.872,0.0
52345.0,STARLINK-3852,PAYLOAD,2022-06-12 14:00:01,15.67567589,0.0001346,53.2176,220.0659,55.9097,161.9805,-0.006978,-0.00711233,0.0,0 STARLINK-3852,1 52345U 22045Q   22163.58334491 -.00711233  00000-0 -69780-2 0  9994,2 52345  53.2176 220.0659 0001346  55.9097 161.9805 15.67567589  1301,6744.001,91.862,366.774,364.959,0.0
52345.0,STARLINK-3852,PAYLOAD,2022-06-12 22:00:00,15.67061598,0.0001055,53.2176,218.4262,86.0143,213.7301,-0.007199,-0.00718055,0.0,0 STARLINK-3852,1 52345U 22045Q   22163.91667824 -.00718055  00000-0 -71990-2 0  9995,2 52345  53.2176 218.4262 0001055  86.0143 213.7301 15.67061598  1302,6745.453,91.892,368.03,366.606,0.0
52345.0,STARLINK-3852,PAYLOAD,2022-06-13 14:00:01,15.66036898,0.0001224,53.2173,215.1563,56.1776,45.4374,-0.0074108,-0.00709778,0.0,0 STARLINK-3852,1 52345U 22045Q   22164.58334491 -.00709778  00000-0 -74108-2 0  9996,2 52345  53.2173 215.1563 0001224  56.1776  45.4374 15.66036898  9576,6748.395,91.952,371.086,369.434,0.0
52345.0,STARLINK-3852,PAYLOAD,2022-06-13 22:00:00,15.65529934,0.0001185,53.2175,213.52,74.5855,107.0458,-0.0076209999999999,-0.00714677,0.0,0 STARLINK-3852,1 52345U 22045Q   22164.91667824 -.00714677  00000-0 -76210-2 0  9992,2 52345  53.2175 213.5200 0001185  74.5855 107.0458 15.65529934  1304,6749.852,91.982,372.517,370.917,0.0
52345.0,STARLINK-3852,PAYLOAD,2022-06-14 14:00:01,15.64509401,0.000102,53.2175,210.2575,82.6434,257.18,-0.0079183,-0.00712887,0.0,0 STARLINK-3852,1 52345U 22045Q   22165.58334491 -.00712887  00000-0 -79183-2 0  9990,2 52345  53.2175 210.2575 0001020  82.6434 257.1800 15.64509401  9722,6752.7869999999975,92.042,375.341,373.963,0.0
52345.0,STARLINK-3852,PAYLOAD,2022-06-14 22:00:00,15.63999725,0.0001066,53.2176,208.6251,66.1441,351.8584,-0.0080965,-0.00714165,0.0,0 STARLINK-3852,1 52345U 22045Q   22165.91667824 -.00714165  00000-0 -80965-2 0  9997,2 52345  53.2176 208.6251 0001066  66.1441 351.8584 15.63999725  1308,6754.254,92.072,376.839,375.399,0.0
52345.0,STARLINK-3852,PAYLOAD,2022-06-15 14:00:01,15.62977498,0.000123,53.2172,205.3699,75.9823,136.5365,-0.008368,-0.00709286,0.0,0 STARLINK-3852,1 52345U 22045Q   22166.58334491 -.00709286  00000-0 -83680-2 0  9997,2 52345  53.2172 205.3699 0001230  75.9823 136.5365 15.62977498  9887,6757.199000000001,92.132,379.895,378.233,0.0
52345.0,STARLINK-3852,PAYLOAD,2022-06-15 22:00:00,15.62469754,0.0001204,53.2173,203.7413,61.597,227.2616,-0.0085945,-0.00713675,0.0,0 STARLINK-3852,1 52345U 22045Q   22166.91667824 -.00713675  00000-0 -85945-2 0  9996,2 52345  53.2173 203.7413 0001204  61.5970 227.2616 15.62469754  1306,6758.663000000001,92.162,381.341,379.714,0.0
52345.0,STARLINK-3852,PAYLOAD,2022-06-16 02:00:01,15.62215997,0.0001346,53.2173,202.928,57.4448,89.353,-0.0086973,-0.00714971,0.0,0 STARLINK-3852,1 52345U 22045Q   22167.08334491 -.00714971  00000-0 -86973-2 0  9998,2 52345  53.2173 202.9280 0001346  57.4448  89.3530 15.62215997  1300,6759.394,92.177,382.169,380.35,0.0
52345.0,STARLINK-3852,PAYLOAD,2022-06-19 14:00:01,15.56861822,0.0001068,53.2172,185.9308,65.55,302.5938,-0.010666,-0.00714052,0.0,0 STARLINK-3852,1 52345U 22045Q   22170.58334491 -.00714052  00000-0 -10666-1 0  9992,2 52345  53.2172 185.9308 0001068  65.5500 302.5938 15.56861822  1309,6774.8830000000025,92.494,397.471,396.024,0.0
52345.0,STARLINK-3852,PAYLOAD,2022-06-19 20:00:01,15.56477872,0.0001151,53.2175,184.7201,60.6577,269.2849,-0.010804,-0.0071306,0.0,0 STARLINK-3852,1 52345U 22045Q   22170.83334491 -.00713060  00000-0 -10804-1 0  9992,2 52345  53.2175 184.7201 0001151  60.6577 269.2849 15.56477872 10559,6775.996999999999,92.517,398.642,397.082,0.0
52345.0,STARLINK-3852,PAYLOAD,2022-06-19 22:00:00,15.56350362,0.0001227,53.2173,184.317,53.9351,23.1968,-0.010865,-0.00713636,0.0,0 STARLINK-3852,1 52345U 22045Q   22170.91667824 -.00713636  00000-0 -10865-1 0  9996,2 52345  53.2173 184.3170 0001227  53.9351  23.1968 15.56350362  1303,6776.3669999999975,92.524,399.064,397.401,0.0
52345.0,STARLINK-3852,PAYLOAD,2022-06-20 14:00:01,15.55332709,0.0001314,53.2171,181.0984,66.35600000000001,146.9071,-0.011332,-0.0071639,0.0,0 STARLINK-3852,1 52345U 22045Q   22171.58334491 -.00716390  00000-0 -11332-1 0  9991,2 52345  53.2171 181.0984 0001314  66.3560 146.9071 15.55332709  1308,6779.323,92.585,402.078,400.297,0.0
